ONEWEB-0446             
1 51640U 22012U   25303.86912071 -.00000407  00000+0 -12016-2 0  9994
2 51640  87.8777  82.0047 0001725  91.5447 268.5879 13.10371764179294
ONEWEB-0448             
1 51641U 22012V   25303.87409735 -.00000559  00000+0 -16373-2 0  9992
2 51641  87.8782  82.0037 0001523 100.5755 259.5544 13.10372881179266
ONEWEB-0449             
1 51642U 22012W   25303.87907700 -.00000595  00000+0 -17401-2 0  9991
2 51642  87.8781  81.9717 0001125  90.0976 270.0280 13.10373569179275
ONEWEB-0451             
1 51643U 22012X   25303.72974528  .00000033  00000+0  51789-4 0  9992
2 51643  87.9131  51.4560 0001557  99.9179 260.2128 13.17650236183448
ONEWEB-0452             
1 51644U 22012Y   25303.72805266  .00000068  00000+0  14276-3 0  9992
2 51644  87.9120  51.5146 0001432 106.1079 254.0210 13.17649079183457
ONEWEB-0456             
1 51646U 22012AA  25303.88903931 -.00000304  00000+0 -90748-3 0  9992
2 51646  87.8791  81.9359 0001661 101.9491 258.1823 13.10375974179318
ONEWEB-0457             
1 51647U 22012AB  25303.78944489 -.00000370  00000+0 -10954-2 0  9998
2 51647  87.8774  82.0083 0001429  82.5482 277.5807 13.10370305179301
ONEWEB-0458             
1 51648U 22012AC  25303.88738201 -.00000317  00000+0 -94326-3 0  9990
2 51648  87.8785  81.9596 0001394  99.5655 260.5630 13.10375799179276
