<?xml version="1.0" encoding="UTF-8"?>
<ndm xmlns:xsi="http://www.w3.org/2001/XMLSchema-instance" xsi:noNamespaceSchemaLocation="https://sanaregistry.org/r/ndmxml_unqualified/ndmxml-2.0.0-master-2.0.xsd">
<omm id="CCSDS_OMM_VERS" version="2.0">
<header><CREATION_DATE/><ORIGINATOR/></header><body><segment><metadata><OBJECT_NAME>ONEWEB-0446</OBJECT_NAME><OBJECT_ID>2022-012U</OBJECT_ID><CENTER_NAME>EARTH</CENTER_NAME><REF_FRAME>TEME</REF_FRAME><TIME_SYSTEM>UTC</TIME_SYSTEM><MEAN_ELEMENT_THEORY>SGP4</MEAN_ELEMENT_THEORY></metadata><data><meanElements><EPOCH>2025-10-30T20:51:32.029344</EPOCH><MEAN_MOTION>13.10371764</MEAN_MOTION><ECCENTRICITY>.00017259</ECCENTRICITY><INCLINATION>87.8777</INCLINATION><RA_OF_ASC_NODE>82.0047</RA_OF_ASC_NODE><ARG_OF_PERICENTER>91.5447</ARG_OF_PERICENTER><MEAN_ANOMALY>268.5879</MEAN_ANOMALY></meanElements><tleParameters><EPHEMERIS_TYPE>0</EPHEMERIS_TYPE><CLASSIFICATION_TYPE>U</CLASSIFICATION_TYPE><NORAD_CAT_ID>51640</NORAD_CAT_ID><ELEMENT_SET_NO>999</ELEMENT_SET_NO><REV_AT_EPOCH>17929</REV_AT_EPOCH><BSTAR>-.12016234E-2</BSTAR><MEAN_MOTION_DOT>-.407E-5</MEAN_MOTION_DOT><MEAN_MOTION_DDOT>0</MEAN_MOTION_DDOT></tleParameters></data></segment></body></omm>
<omm id="CCSDS_OMM_VERS" version="2.0">
<header><CREATION_DATE/><ORIGINATOR/></header><body><segment><metadata><OBJECT_NAME>ONEWEB-0448</OBJECT_NAME><OBJECT_ID>2022-012V</OBJECT_ID><CENTER_NAME>EARTH</CENTER_NAME><REF_FRAME>TEME</REF_FRAME><TIME_SYSTEM>UTC</TIME_SYSTEM><MEAN_ELEMENT_THEORY>SGP4</MEAN_ELEMENT_THEORY></metadata><data><meanElements><EPOCH>2025-10-30T20:58:42.011040</EPOCH><MEAN_MOTION>13.10372881</MEAN_MOTION><ECCENTRICITY>.00015239</ECCENTRICITY><INCLINATION>87.8782</INCLINATION><RA_OF_ASC_NODE>82.0037</RA_OF_ASC_NODE><ARG_OF_PERICENTER>100.5755</ARG_OF_PERICENTER><MEAN_ANOMALY>259.5544</MEAN_ANOMALY></meanElements><tleParameters><EPHEMERIS_TYPE>0</EPHEMERIS_TYPE><CLASSIFICATION_TYPE>U</CLASSIFICATION_TYPE><NORAD_CAT_ID>51641</NORAD_CAT_ID><ELEMENT_SET_NO>999</ELEMENT_SET_NO><REV_AT_EPOCH>17926</REV_AT_EPOCH><BSTAR>-.16372958E-2</BSTAR><MEAN_MOTION_DOT>-.559E-5</MEAN_MOTION_DOT><MEAN_MOTION_DDOT>0</MEAN_MOTION_DDOT></tleParameters></data></segment></body></omm>
<omm id="CCSDS_OMM_VERS" version="2.0">
<header><CREATION_DATE/><ORIGINATOR/></header><body><segment><metadata><OBJECT_NAME>ONEWEB-0449</OBJECT_NAME><OBJECT_ID>2022-012W</OBJECT_ID><CENTER_NAME>EARTH</CENTER_NAME><REF_FRAME>TEME</REF_FRAME><TIME_SYSTEM>UTC</TIME_SYSTEM><MEAN_ELEMENT_THEORY>SGP4</MEAN_ELEMENT_THEORY></metadata><data><meanElements><EPOCH>2025-10-30T21:05:52.252800</EPOCH><MEAN_MOTION>13.10373569</MEAN_MOTION><ECCENTRICITY>.00011259</ECCENTRICITY><INCLINATION>87.8781</INCLINATION><RA_OF_ASC_NODE>81.9717</RA_OF_ASC_NODE><ARG_OF_PERICENTER>90.0976</ARG_OF_PERICENTER><MEAN_ANOMALY>270.0280</MEAN_ANOMALY></meanElements><tleParameters><EPHEMERIS_TYPE>0</EPHEMERIS_TYPE><CLASSIFICATION_TYPE>U</CLASSIFICATION_TYPE><NORAD_CAT_ID>51642</NORAD_CAT_ID><ELEMENT_SET_NO>999</ELEMENT_SET_NO><REV_AT_EPOCH>17927</REV_AT_EPOCH><BSTAR>-.17401198E-2</BSTAR><MEAN_MOTION_DOT>-.595E-5</MEAN_MOTION_DOT><MEAN_MOTION_DDOT>0</MEAN_MOTION_DDOT></tleParameters></data></segment></body></omm>
<omm id="CCSDS_OMM_VERS" version="2.0">
<header><CREATION_DATE/><ORIGINATOR/></header><body><segment><metadata><OBJECT_NAME>ONEWEB-0451</OBJECT_NAME><OBJECT_ID>2022-012X</OBJECT_ID><CENTER_NAME>EARTH</CENTER_NAME><REF_FRAME>TEME</REF_FRAME><TIME_SYSTEM>UTC</TIME_SYSTEM><MEAN_ELEMENT_THEORY>SGP4</MEAN_ELEMENT_THEORY></metadata><data><meanElements><EPOCH>2025-10-30T17:30:49.992192</EPOCH><MEAN_MOTION>13.17650236</MEAN_MOTION><ECCENTRICITY>.00015579</ECCENTRICITY><INCLINATION>87.9131</INCLINATION><RA_OF_ASC_NODE>51.4560</RA_OF_ASC_NODE><ARG_OF_PERICENTER>99.9179</ARG_OF_PERICENTER><MEAN_ANOMALY>260.2128</MEAN_ANOMALY></meanElements><tleParameters><EPHEMERIS_TYPE>0</EPHEMERIS_TYPE><CLASSIFICATION_TYPE>U</CLASSIFICATION_TYPE><NORAD_CAT_ID>51643</NORAD_CAT_ID><ELEMENT_SET_NO>999</ELEMENT_SET_NO><REV_AT_EPOCH>18344</REV_AT_EPOCH><BSTAR>.51788961E-4</BSTAR><MEAN_MOTION_DOT>.33E-6</MEAN_MOTION_DOT><MEAN_MOTION_DDOT>0</MEAN_MOTION_DDOT></tleParameters></data></segment></body></omm>
<omm id="CCSDS_OMM_VERS" version="2.0">
<header><CREATION_DATE/><ORIGINATOR/></header><body><segment><metadata><OBJECT_NAME>ONEWEB-0452</OBJECT_NAME><OBJECT_ID>2022-012Y</OBJECT_ID><CENTER_NAME>EARTH</CENTER_NAME><REF_FRAME>TEME</REF_FRAME><TIME_SYSTEM>UTC</TIME_SYSTEM><MEAN_ELEMENT_THEORY>SGP4</MEAN_ELEMENT_THEORY></metadata><data><meanElements><EPOCH>2025-10-30T17:28:23.749824</EPOCH><MEAN_MOTION>13.17649079</MEAN_MOTION><ECCENTRICITY>.0001432</ECCENTRICITY><INCLINATION>87.9120</INCLINATION><RA_OF_ASC_NODE>51.5146</RA_OF_ASC_NODE><ARG_OF_PERICENTER>106.1079</ARG_OF_PERICENTER><MEAN_ANOMALY>254.0210</MEAN_ANOMALY></meanElements><tleParameters><EPHEMERIS_TYPE>0</EPHEMERIS_TYPE><CLASSIFICATION_TYPE>U</CLASSIFICATION_TYPE><NORAD_CAT_ID>51644</NORAD_CAT_ID><ELEMENT_SET_NO>999</ELEMENT_SET_NO><REV_AT_EPOCH>18345</REV_AT_EPOCH><BSTAR>.14276208E-3</BSTAR><MEAN_MOTION_DOT>.68E-6</MEAN_MOTION_DOT><MEAN_MOTION_DDOT>0</MEAN_MOTION_DDOT></tleParameters></data></segment></body></omm>
<omm id="CCSDS_OMM_VERS" version="2.0">
<header><CREATION_DATE/><ORIGINATOR/></header><body><segment><metadata><OBJECT_NAME>ONEWEB-0456</OBJECT_NAME><OBJECT_ID>2022-012AA</OBJECT_ID><CENTER_NAME>EARTH</CENTER_NAME><REF_FRAME>TEME</REF_FRAME><TIME_SYSTEM>UTC</TIME_SYSTEM><MEAN_ELEMENT_THEORY>SGP4</MEAN_ELEMENT_THEORY></metadata><data><meanElements><EPOCH>2025-10-30T21:20:12.996384</EPOCH><MEAN_MOTION>13.10375974</MEAN_MOTION><ECCENTRICITY>.00016619</ECCENTRICITY><INCLINATION>87.8791</INCLINATION><RA_OF_ASC_NODE>81.9359</RA_OF_ASC_NODE><ARG_OF_PERICENTER>101.9491</ARG_OF_PERICENTER><MEAN_ANOMALY>258.1823</MEAN_ANOMALY></meanElements><tleParameters><EPHEMERIS_TYPE>0</EPHEMERIS_TYPE><CLASSIFICATION_TYPE>U</CLASSIFICATION_TYPE><NORAD_CAT_ID>51646</NORAD_CAT_ID><ELEMENT_SET_NO>999</ELEMENT_SET_NO><REV_AT_EPOCH>17931</REV_AT_EPOCH><BSTAR>-.90747945E-3</BSTAR><MEAN_MOTION_DOT>-.304E-5</MEAN_MOTION_DOT><MEAN_MOTION_DDOT>0</MEAN_MOTION_DDOT></tleParameters></data></segment></body></omm>
<omm id="CCSDS_OMM_VERS" version="2.0">
<header><CREATION_DATE/><ORIGINATOR/></header><body><segment><metadata><OBJECT_NAME>ONEWEB-0457</OBJECT_NAME><OBJECT_ID>2022-012AB</OBJECT_ID><CENTER_NAME>EARTH</CENTER_NAME><REF_FRAME>TEME</REF_FRAME><TIME_SYSTEM>UTC</TIME_SYSTEM><MEAN_ELEMENT_THEORY>SGP4</MEAN_ELEMENT_THEORY></metadata><data><meanElements><EPOCH>2025-10-30T18:56:48.038496</EPOCH><MEAN_MOTION>13.10370305</MEAN_MOTION><ECCENTRICITY>.00014291</ECCENTRICITY><INCLINATION>87.8774</INCLINATION><RA_OF_ASC_NODE>82.0083</RA_OF_ASC_NODE><ARG_OF_PERICENTER>82.5482</ARG_OF_PERICENTER><MEAN_ANOMALY>277.5807</MEAN_ANOMALY></meanElements><tleParameters><EPHEMERIS_TYPE>0</EPHEMERIS_TYPE><CLASSIFICATION_TYPE>U</CLASSIFICATION_TYPE><NORAD_CAT_ID>51647</NORAD_CAT_ID><ELEMENT_SET_NO>999</ELEMENT_SET_NO><REV_AT_EPOCH>17930</REV_AT_EPOCH><BSTAR>-.10954207E-2</BSTAR><MEAN_MOTION_DOT>-.37E-5</MEAN_MOTION_DOT><MEAN_MOTION_DDOT>0</MEAN_MOTION_DDOT></tleParameters></data></segment></body></omm>
<omm id="CCSDS_OMM_VERS" version="2.0">
<header><CREATION_DATE/><ORIGINATOR/></header><body><segment><metadata><OBJECT_NAME>ONEWEB-0458</OBJECT_NAME><OBJECT_ID>2022-012AC</OBJECT_ID><CENTER_NAME>EARTH</CENTER_NAME><REF_FRAME>TEME</REF_FRAME><TIME_SYSTEM>UTC</TIME_SYSTEM><MEAN_ELEMENT_THEORY>SGP4</MEAN_ELEMENT_THEORY></metadata><data><meanElements><EPOCH>2025-10-30T21:17:49.805664</EPOCH><MEAN_MOTION>13.10375799</MEAN_MOTION><ECCENTRICITY>.00013944</ECCENTRICITY><INCLINATION>87.8785</INCLINATION><RA_OF_ASC_NODE>81.9596</RA_OF_ASC_NODE><ARG_OF_PERICENTER>99.5655</ARG_OF_PERICENTER><MEAN_ANOMALY>260.5630</MEAN_ANOMALY></meanElements><tleParameters><EPHEMERIS_TYPE>0</EPHEMERIS_TYPE><CLASSIFICATION_TYPE>U</CLASSIFICATION_TYPE><NORAD_CAT_ID>51648</NORAD_CAT_ID><ELEMENT_SET_NO>999</ELEMENT_SET_NO><REV_AT_EPOCH>17927</REV_AT_EPOCH><BSTAR>-.94325977E-3</BSTAR><MEAN_MOTION_DOT>-.317E-5</MEAN_MOTION_DOT><MEAN_MOTION_DDOT>0</MEAN_MOTION_DDOT></tleParameters></data></segment></body></omm>

</ndm>
